CCSDS_OEM_VERS = 1.0
CREATION_DATE  = 2017-05-11T11:38:57
ORIGINATOR     = GMAT USER

META_START
OBJECT_NAME          = MOPSSat_alt_35785_km_RAAN_180_106
OBJECT_ID            = SatId
CENTER_NAME          = Earth
REF_FRAME            = EME2000
TIME_SYSTEM          = UTC
START_TIME           = 2017-01-01T00:00:00.000
USEABLE_START_TIME   = 2017-01-01T00:00:00.000
USEABLE_STOP_TIME    = 2017-01-02T00:00:00.000
STOP_TIME            = 2017-01-02T00:00:00.000
INTERPOLATION        = Lagrange
INTERPOLATION_DEGREE = 7 
META_STOP


                                                                                   

2017-01-01T17:43:20.000   1.900066002786240e+04   3.999422664974767e+04  -2.113272156758752e+00  -2.834384384280127e+00   7.188174594980765e-01   7.444563183380761e-05
2017-01-01T17:43:30.000   1.897231182276562e+04   4.000140564047809e+04  -2.112527105019969e+00  -2.835256419837725e+00   7.169805001740388e-01   7.456471803095013e-05
2017-01-01T17:43:40.000   1.894395490269103e+04   4.000856625630075e+04  -2.111780862327839e+00  -2.836127487961948e+00   7.151425053404217e-01   7.468382534130092e-05
2017-01-01T17:43:50.000   1.891558927703104e+04   4.001570848693313e+04  -2.111033428463972e+00  -2.836997587534300e+00   7.133034749906466e-01   7.480295370254514e-05
2017-01-01T17:44:00.000   1.888721495525421e+04   4.002283232207631e+04  -2.110284803212319e+00  -2.837866717433187e+00   7.114634091231528e-01   7.492210305199626e-05
2017-01-01T17:44:10.000   1.885883194676078e+04   4.002993775145193e+04  -2.109534986355386e+00  -2.838734876538388e+00   7.096223077320429e-01   7.504127332720964e-05
2017-01-01T17:44:20.000   1.883044026124907e+04   4.003702476470765e+04  -2.108783977683786e+00  -2.839602063719671e+00   7.077801708307875e-01   7.516046446442511e-05
2017-01-01T17:44:30.000   1.880203990844381e+04   4.004409335148807e+04  -2.108031776989193e+00  -2.840468277845282e+00   7.059369984346699e-01   7.527967639972633e-05
2017-01-01T17:44:40.000   1.877363089809565e+04   4.005114350143372e+04  -2.107278384064282e+00  -2.841333517781888e+00   7.040927905607330e-01   7.539890906903579e-05
2017-01-01T17:44:50.000   1.874521324025552e+04   4.005817520411578e+04  -2.106523798710131e+00  -2.842197782386387e+00   7.022475472456499e-01   7.551816240698194e-05
2017-01-01T17:45:00.000   1.871678694490559e+04   4.006518844912496e+04  -2.105768020726314e+00  -2.843061070516992e+00   7.004012685217108e-01   7.563743634842950e-05
2017-01-01T17:45:10.000   1.868835202210453e+04   4.007218322603626e+04  -2.105011049914785e+00  -2.843923381028842e+00   6.985539544262702e-01   7.575673082787628e-05
2017-01-01T17:45:20.000   1.865990848134584e+04   4.007915952456687e+04  -2.104252886062806e+00  -2.844784712793481e+00   6.967056049600666e-01   7.587604578212838e-05
2017-01-01T17:45:30.000   1.863145633219949e+04   4.008611733441806e+04  -2.103493528960006e+00  -2.845645064679364e+00   6.948562201288947e-01   7.599538114762509e-05
2017-01-01T17:45:40.000   1.860299558416701e+04   4.009305664531126e+04  -2.102732978394553e+00  -2.846504435556292e+00   6.930057999342082e-01   7.611473686104089e-05
2017-01-01T17:45:50.000   1.857452624704887e+04   4.009997744689567e+04  -2.101971234162834e+00  -2.847362824284140e+00   6.911543443969418e-01   7.623411285775872e-05
2017-01-01T17:46:00.000   1.854604833067209e+04   4.010687972881762e+04  -2.101208296062316e+00  -2.848220229721257e+00   6.893018535398677e-01   7.635350907299839e-05
2017-01-01T17:46:10.000   1.851756184488979e+04   4.011376348071954e+04  -2.100444163891479e+00  -2.849076650724416e+00   6.874483273875418e-01   7.647292544182294e-05
2017-01-01T17:46:20.000   1.848906679985619e+04   4.012062869217616e+04  -2.099678837457326e+00  -2.849932086140711e+00   6.855937659842655e-01   7.659236189797349e-05
2017-01-01T17:46:30.000   1.846056320565668e+04   4.012747535278154e+04  -2.098912316565332e+00  -2.850786534818513e+00   6.837381693699502e-01   7.671181837543197e-05
2017-01-01T17:46:40.000   1.843205107245617e+04   4.013430345211367e+04  -2.098144601023461e+00  -2.851639995603063e+00   6.818815375897940e-01   7.683129480779514e-05
2017-01-01T17:46:50.000   1.840353040984493e+04   4.014111297989141e+04  -2.097375690624557e+00  -2.852492467356048e+00   6.800238706516843e-01   7.695079113102645e-05
2017-01-01T17:47:00.000   1.837500122749438e+04   4.014790392581702e+04  -2.096605585163987e+00  -2.853343948935963e+00   6.781651685688969e-01   7.707030728069788e-05
2017-01-01T17:47:10.000   1.834646353498788e+04   4.015467627961715e+04  -2.095834284435100e+00  -2.854194439203186e+00   6.763054313490869e-01   7.718984319270204e-05
2017-01-01T17:47:20.000   1.831791734227550e+04   4.016143003093247e+04  -2.095061788241415e+00  -2.855043937006291e+00   6.744446590238691e-01   7.730939880133901e-05
2017-01-01T17:47:30.000   1.828936265929887e+04   4.016816516940905e+04  -2.094288096386574e+00  -2.855892441193357e+00   6.725828516244307e-01   7.742897404089535e-05
2017-01-01T17:47:40.000   1.826079949607494e+04   4.017488168467785e+04  -2.093513208676598e+00  -2.856739950609443e+00   6.707200091869714e-01   7.754856884529121e-05
2017-01-01T17:47:50.000   1.823222786267381e+04   4.018157956636159e+04  -2.092737124919346e+00  -2.857586464097340e+00   6.688561317512967e-01   7.766818314817716e-05
2017-01-01T17:48:00.000   1.820364776918967e+04   4.018825880408019e+04  -2.091959844923676e+00  -2.858431980498350e+00   6.669912193589006e-01   7.778781688305189e-05
2017-01-01T17:48:10.000   1.817505922573074e+04   4.019491938745345e+04  -2.091181368499169e+00  -2.859276498652600e+00   6.651252720523029e-01   7.790746998330520e-05
2017-01-01T17:48:20.000   1.814646224231714e+04   4.020156130612543e+04  -2.090401695453395e+00  -2.860120017402097e+00   6.632582898684157e-01   7.802714238264755e-05
2017-01-01T17:48:30.000   1.811785682894889e+04   4.020818454974791e+04  -2.089620825593714e+00  -2.860962535588671e+00   6.613902728429470e-01   7.814683401482188e-05
2017-01-01T17:48:40.000   1.808924299560582e+04   4.021478910798029e+04  -2.088838758727288e+00  -2.861804052053984e+00   6.595212210104174e-01   7.826654481360585e-05
2017-01-01T17:48:50.000   1.806062075217920e+04   4.022137497050504e+04  -2.088055494659173e+00  -2.862644565641493e+00   6.576511343996614e-01   7.838627471308806e-05
2017-01-01T17:49:00.000   1.803199010857419e+04   4.022794212700427e+04  -2.087271033195155e+00  -2.863484075193476e+00   6.557800130405465e-01   7.850602364724999e-05
2017-01-01T17:49:10.000   1.800335107472034e+04   4.023449056715769e+04  -2.086485374142033e+00  -2.864322579550735e+00   6.539078569646583e-01   7.862579154991809e-05
2017-01-01T17:49:20.000   1.797470366059952e+04   4.024102028063488e+04  -2.085698517308339e+00  -2.865160077551693e+00   6.520346662071006e-01   7.874557835466068e-05
2017-01-01T17:49:30.000   1.794604787626952e+04   4.024753125709149e+04  -2.084910462505047e+00  -2.865996568031802e+00   6.501604408080754e-01   7.886538399467525e-05
2017-01-01T17:49:40.000   1.791738373177951e+04   4.025402348618786e+04  -2.084121209543230e+00  -2.866832049825977e+00   6.482851808073385e-01   7.898520840314694e-05
2017-01-01T17:49:50.000   1.788871123754852e+04   4.026049695750524e+04  -2.083330758244571e+00  -2.867666521757675e+00   6.464088862690159e-01   7.910505151165053e-05
2017-01-01T17:50:00.000   1.786003040390704e+04   4.026695166064773e+04  -2.082539108428651e+00  -2.868499982652148e+00   6.445315572515604e-01   7.922491325208271e-05
2017-01-01T17:50:10.000   1.783134124126734e+04   4.027338758520417e+04  -2.081746259917661e+00  -2.869332431331504e+00   6.426531938189155e-01   7.934479355594369e-05
2017-01-01T17:50:20.000   1.780264375946377e+04   4.027980472089646e+04  -2.080952212518182e+00  -2.870163866633860e+00   6.407737959973226e-01   7.946469235711170e-05
2017-01-01T17:50:30.000   1.777393796841074e+04   4.028620305743139e+04  -2.080156966039352e+00  -2.870994287394231e+00   6.388933638184010e-01   7.958460958907536e-05
2017-01-01T17:50:40.000   1.774522387795385e+04   4.029258258453468e+04  -2.079360520288777e+00  -2.871823692448871e+00   6.370118973094065e-01   7.970454518556277e-05
2017-01-01T17:50:50.000   1.771650149824059e+04   4.029894329186567e+04  -2.078562875082672e+00  -2.872652080624400e+00   6.351293965174596e-01   7.982449907897346e-05
2017-01-01T17:51:00.000   1.768777083944546e+04   4.030528516908142e+04  -2.077764030238384e+00  -2.873479450745912e+00   6.332458614916029e-01   7.994447120154594e-05
2017-01-01T17:51:10.000   1.765903191176951e+04   4.031160820583560e+04  -2.076963985574321e+00  -2.874305801636931e+00   6.313612922827466e-01   8.006446148535228e-05
2017-01-01T17:51:20.000   1.763028472571779e+04   4.031791239172027e+04  -2.076162740917805e+00  -2.875131132111587e+00   6.294756889619284e-01   8.018446986115888e-05
2017-01-01T17:51:30.000   1.760152929172612e+04   4.032419771634533e+04  -2.075360296094562e+00  -2.875955440985198e+00   6.275890515957787e-01   8.030449625996591e-05
2017-01-01T17:51:40.000   1.757276562030795e+04   4.033046416930693e+04  -2.074556650932844e+00  -2.876778727070086e+00   6.257013802561709e-01   8.042454061240013e-05
2017-01-01T17:51:50.000   1.754399372140545e+04   4.033671174032908e+04  -2.073751805245302e+00  -2.877600989194159e+00   6.238126749776337e-01   8.054460285140690e-05
2017-01-01T17:52:00.000   1.751521360503831e+04   4.034294041912175e+04  -2.072945758847101e+00  -2.878422226182317e+00   6.219229357999330e-01   8.066468290955846e-05
2017-01-01T17:52:10.000   1.748642528115733e+04   4.034915019541350e+04  -2.072138511551850e+00  -2.879242436860673e+00   6.200321627584680e-01   8.078478071965973e-05
2017-01-01T17:52:20.000   1.745762876001604e+04   4.035534105886832e+04  -2.071330063181892e+00  -2.880061620045793e+00   6.181403559086168e-01   8.090489621321186e-05
